GALAXY 33 (G-33)        
1 54026U 22128A   26169.01310519  .00000073  00000+0  00000+0 0  9994
2 54026   0.0150  35.8889 0001650  52.5025  49.5933  1.00272433 13758
GALAXY 34 (G-34)        
1 54027U 22128B   26168.72862358  .00000053  00000+0  00000+0 0  9993
2 54027   0.0148  14.9716 0001609  90.3282 293.9894  1.00277403 13913
ANGOSAT 2               
1 54033U 22131A   26168.61616823  .00000130  00000+0  00000+0 0  9992
2 54033   0.0320  83.0963 0000715  28.7776  38.8139  1.00272126 13480
EUTELSAT HOTBIRD 13F    
1 54048U 22134A   26169.11328439  .00000081  00000+0  00000+0 0  9995
2 54048   0.0515 293.9197 0002109  61.5289 324.7024  1.00271016 13382
LDPE-2                  
1 54219U 22144A   26169.29364685  .00000120  00000+0  00000+0 0  9992
2 54219   5.6166  63.6451 0001828 102.1778  49.9747  1.00532781 11859
EUTELSAT HOTBIRD 13G    
1 54225U 22146A   26169.11328439  .00000081  00000+0  00000+0 0  9995
2 54225   0.0495 232.1573 0001911 312.7298 135.2535  1.00270249  7472
ZHONGXING-19            
1 54230U 22148A   26169.28562487 -.00000088  00000+0  00000+0 0  9992
2 54230   0.0167  16.7956 0002331  93.8847  61.8615  1.00271537 13391
GALAXY 31 (G-31)        
1 54243U 22153A   26169.30059131  .00000007  00000+0  00000+0 0  9992
2 54243   0.0157  71.4585 0001076   6.5690 175.7121  1.00271469  7149
GALAXY 32 (G-32)        
1 54244U 22153B   26169.25430528 -.00000180  00000+0  00000+0 0  9993
2 54244   0.0102  22.6295 0002065  11.5608 232.8558  1.00271730 13158
EUTELSAT 10B            
1 54259U 22157A   26169.18394519  .00000061  00000+0  00000+0 0  9991
2 54259   0.0635  97.7168 0001100  11.3837 233.5399  1.00265373 13032
GALAXY 35 (G-35)        
1 54741U 22170A   26169.25331361 -.00000168  00000+0  00000+0 0  9995
2 54741   0.0145  39.9581 0001792  44.0063 180.6091  1.00271934 12908
GALAXY 36 (G-36)        
1 54742U 22170B   26169.13572639 -.00000191  00000+0  00000+0 0  9994
2 54742   0.0101 300.3110 0002562 144.8983 141.0243  1.00270104 12784
METEOSAT-12 (MTG-I1)    
1 54743U 22170C   26169.18186517 -.00000014  00000+0  00000+0 0  9990
2 54743   0.7396  23.1663 0003212  71.1822 237.1409  1.00272883 12987
SHIJIAN-23 (SJ-23)      
1 55131U 23002A   26168.72928037 -.00000260  00000+0  00000+0 0  9990
2 55131   3.7196  78.3065 0003809 272.9008 325.0641  1.00087498 12517
APSTAR-6E               
1 55239U 23005A   26166.71330346 -.00000316  00000+0  00000+0 0  9991
2 55239   0.0372 251.5524 0001114 313.0083  90.2366  1.00268070 18679
USA 342                 
1 55263U 23008A   26166.33502449  .00000142  00000+0  00000+0 0  9990
2 55263   0.0090  64.0068 0000187 223.8693 120.1932  1.00270392 12493
LDPE-3A                 
1 55264U 23008B   26169.30206464  .00000056  00000+0  00000+0 0  9993
2 55264   2.3516  81.6507 0001123  61.2178 118.8642  0.99144968 11822
ELEKTRO-L 4             
1 55506U 23016A   26168.80039411 -.00000064  00000+0  00000+0 0  9991
2 55506   0.0744 162.3010 0000798  12.9032 184.7859  1.00270813 12346
AMAZONAS NEXUS          
1 55508U 23017A   26168.48627965 -.00000287  00000+0  00000+0 0  9992
2 55508   0.0383  36.9392 0004936  30.7226 312.1388  1.00269694  7047
ZHONGXING-26            
1 55686U 23023A   26167.78090797 -.00000356  00000+0  00000+0 0  9992
2 55686   0.0665  70.0780 0003266  19.8711 221.3542  1.00271639 12220
LUCH-5X (OLYMP-K 2)     
1 55841U 23031A   26168.76651992  .00000028  00000+0  00000+0 0  9998
2 55841   0.0237  60.4476 0000684 145.7824  37.7201  1.00272450 11949
GAOFEN-13 02            
1 55912U 23036A   26169.28267819 -.00000225  00000+0  00000+0 0  9991
2 55912   1.0210   1.3120 0004098 335.9566 179.3112  1.00270275 12105
SES-18                  
1 55970U 23038A   26169.23288183 -.00000107  00000+0  00000+0 0  9998
2 55970   0.0184 297.1105 0000139 327.0810 343.0160  1.00271547 12119
SES-19                  
1 55971U 23038B   26169.29773130  .00000082  00000+0  00000+0 0  9997
2 55971   0.0134  20.9539 0001446  61.7552 156.1113  1.00271979 12104
INTELSAT 40E (IS-40E)   
1 56174U 23052A   26168.66486093 -.00000179  00000+0  00000+0 0  9996
2 56174   0.0189  48.0105 0001922  78.3886 287.8621  1.00271165 11824
VIASAT-3 F1             
1 56370U 23060A   26168.66503426  .00000000  00000+0  00000+0 0  9995
2 56370   0.0240 348.4553 0001091  91.8716 336.0422  1.00270651 11435
ARCTURUS                
1 56371U 23060B   26167.95234863 -.00000068  00000+0  00000+0 0  9998
2 56371   2.7748  79.9563 0002558  49.6160 190.9835  1.00272378 11453
GS-1                    
1 56372U 23060C   26168.84323069 -.00000231  00000+0  00000+0 0  9997
2 56372   2.7275  79.8251 0003816 282.0465 297.1917  1.00274442  7541
BEIDOU-3 G4             
1 56564U 23066A   26169.28103152 -.00000287  00000+0  00000+0 0  9995
2 56564   0.4853 331.8225 0004356 180.3372 355.5712  1.00273363 11403
ARABSAT-7B (BADR-8)     
1 56757U 23075A   26168.90192579  .00000139  00000+0  00000+0 0  9993
2 56757   0.0761  29.2884 0004498 354.1441 233.4156  1.00271185 11120
NVS-01 (IRNSS-1J)       
1 56759U 23076A   26169.27886485 -.00000342  00000+0  00000+0 0  9990
2 56759   2.1627 244.2917 0003127  36.1064 215.9343  1.00264298 11128
